[{"OBJECT_NAME":"STARLINK-31004","OBJECT_ID":"2023-191W","EPOCH":"2026-03-09T04:05:03.720480","MEAN_MOTION":15.26740931,"ECCENTRICITY":0.00010168,"INCLINATION":43.0025,"RA_OF_ASC_NODE":106.2086,"ARG_OF_PERICENTER":256.7184,"MEAN_ANOMALY":103.3554,"EPHEMERIS_TYPE":0,"CLASSIFICATION_TYPE":"U","NORAD_CAT_ID":58528,"ELEMENT_SET_NO":999,"REV_AT_EPOCH":12539,"BSTAR":-2.6480248e-5,"MEAN_MOTION_DOT":-9.7e-6,"MEAN_MOTION_DDOT":0},{"OBJECT_NAME":"FLOCK 4G-14","OBJECT_ID":"2025-009BL","EPOCH":"2026-03-09T18:12:31.432032","MEAN_MOTION":15.27197201,"ECCENTRICITY":0.00030064,"INCLINATION":97.4064,"RA_OF_ASC_NODE":151.1836,"ARG_OF_PERICENTER":318.3639,"MEAN_ANOMALY":41.7371,"EPHEMERIS_TYPE":0,"CLASSIFICATION_TYPE":"U","NORAD_CAT_ID":62667,"ELEMENT_SET_NO":999,"REV_AT_EPOCH":6371,"BSTAR":0.00042675627,"MEAN_MOTION_DOT":0.0001131,"MEAN_MOTION_DDOT":0}]
