STARLINK-31004          
1 58528U 23191W   26068.17018195 -.00000970  00000+0 -26480-4 0  9999
2 58528  43.0025 106.2086 0001016 256.7184 103.3554 15.26740931125397
FLOCK 4G-14             
1 62667U 25009BL  26068.75869712  .00011310  00000+0  42676-3 0  9993
2 62667  97.4064 151.1836 0003006 318.3639  41.7371 15.27197201 63711
